SL-14 R/B               
1 16792U 86046B   26043.61636184  .00000449  00000+0  49023-4 0  9997
2 16792  82.4808 103.8775 0021933 313.5539  46.3855 14.85565809122686
SL-14 R/B               
1 16882U 86055B   26043.82650417  .00000537  00000+0  59046-4 0  9999
2 16882  82.5235 150.0366 0020144  57.2237  66.3051 14.85616919115671
AJISAI (EGS)            
1 16908U 86061A   26043.84539576 -.00000108  00000+0 -76723-4 0  9996
2 16908  50.0080 169.7436 0011237 222.9656 318.6868 12.44515353464907
COSMOS 1812             
1 17295U 87003A   26043.81425259  .00341539  45977-4  76391-3 0  9993
2 17295  82.4761 223.9045 0002037 306.6227  53.4862 15.97751931140480
SL-14 R/B               
1 17567U 87024B   26043.59158146  .00000465  00000+0  50143-4 0  9992
2 17567  82.5285 116.3539 0017818 348.7739  11.3077 14.86107969 84408
COSMOS 1833             
1 17589U 87027A   26043.37604792  .00000017  00000+0  35025-4 0  9993
2 17589  70.9220  19.2176 0024913 248.5586 111.2878 14.13057093  6743
SL-16 R/B               
1 17590U 87027B   26043.77595169 -.00000118  00000+0 -34691-4 0  9998
2 17590  71.0046 328.9935 0004835 186.7534 173.3525 14.17162831 11816
SL-14 R/B               
1 17912U 87038B   26043.77571367  .00000526  00000+0  58239-4 0  9997
2 17912  82.5039 320.2727 0017753 245.4013 114.5353 14.85345080 75534
COSMOS 1844             
1 17973U 87041A   26043.50874852  .00000450  00000+0  25826-3 0  9995
2 17973  70.8980  87.2918 0028944  58.1650 302.2284 14.14544310    28
SL-14 R/B               
1 18153U 87055B   26043.42023316  .00000638  00000+0  70596-4 0  9996
2 18153  82.5002  12.8426 0022322  96.4818 263.8940 14.85597814 66182
COSMOS 1867             
1 18187U 87060A   26043.29107291 -.00000006  00000+0  35426-4 0  9992
2 18187  65.0117  17.8303 0014155 276.9104  83.0370 14.31498947 16305
SL-14 R/B               
1 18749U 88001B   26043.48114239  .00000586  00000+0  65027-4 0  9995
2 18749  82.5110 219.0697 0017173 325.8818  34.1292 14.85497010 38287
